NORAD_CAT_ID,OBJECT_NAME,OBJECT_TYPE,EPOCH,MEAN_MOTION,ECCENTRICITY,INCLINATION,RA_OF_ASC_NODE,ARG_OF_PERICENTER,MEAN_ANOMALY,BSTAR,MEAN_MOTION_DOT,MEAN_MOTION_DDOT,TLE_LINE0,TLE_LINE1,TLE_LINE2,SEMIMAJOR_AXIS,PERIOD,APOGEE,PERIGEE,DECAYED
56460.0,STARLINK-6047,PAYLOAD,2023-06-07 13:27:32,15.69926366,0.0003395,69.9978,167.0514,266.1827,93.8981,1.2788e-05,1.325e-05,0.0,0 STARLINK-6047,1 56460U 23064N   23158.56079296  .00001325  00000-0  12788-4 0  9990,2 56460  69.9978 167.0514 0003395 266.1827  93.8981 15.69926366  4394,6737.245,91.724,361.397,356.822,0.0
56460.0,STARLINK-6047,PAYLOAD,2023-06-07 18:02:47,15.6992714,0.0003538,69.9975,166.5143,262.3492,97.7302,1.5268e-05,1.624e-05,0.0,0 STARLINK-6047,1 56460U 23064N   23158.75194167  .00001624  00000-0  15268-4 0  9994,2 56460  69.9975 166.5143 0003538 262.3492  97.7302 15.69927140  4771,6737.242,91.724,361.491,356.724,0.0
56460.0,STARLINK-6047,PAYLOAD,2023-06-08 09:16:25,15.73134789,0.0017343,69.996,164.7128,282.4853,77.4404,0.0033408,0.00490268,0.0,0 STARLINK-6047,1 56460U 23064N   23159.38640281  .00490268  00000-0  33408-2 0  9997,2 56460  69.9960 164.7128 0017343 282.4853  77.4404 15.73134789  4874,6728.081,91.537,361.615,338.278,0.0
56460.0,STARLINK-6047,PAYLOAD,2023-06-08 22:00:00,15.68217902,0.0003465,70.0001,163.2414,267.8137,190.3669,-0.0086461,-0.00873709,0.0,0 STARLINK-6047,1 56460U 23064N   23159.91667824 -.00873709  00000-0 -86461-2 0  9992,2 56460  70.0001 163.2414 0003465 267.8137 190.3669 15.68217902  4968,6742.137,91.824,366.338,361.666,0.0
56460.0,STARLINK-6047,PAYLOAD,2023-06-09 14:00:01,15.66950422,0.0003621,69.9998,161.3736,271.8226,347.375,-0.0099781,-0.0096387,0.0,0 STARLINK-6047,1 56460U 23064N   23160.58334491 -.00963870  00000-0 -99781-2 0  9996,2 56460  69.9998 161.3736 0003621 271.8226 347.3750 15.66950422  5060,6745.772,91.898,370.08,365.195,0.0
56460.0,STARLINK-6047,PAYLOAD,2023-06-09 22:00:00,15.66264812,0.0003797,69.9999,160.4411,266.4197,72.123,-0.0094457,-0.00893966,0.0,0 STARLINK-6047,1 56460U 23064N   23160.91667824 -.00893966  00000-0 -94457-2 0  9995,2 56460  69.9999 160.4411 0003797 266.4197  72.1230 15.66264812  1302,6747.741,91.938,372.168,367.044,0.0
56460.0,STARLINK-6047,PAYLOAD,2023-06-10 06:00:02,15.65598972,0.0003725,70.0,159.5095,271.3119,145.8652,-0.0096877,-0.00892697,0.0,0 STARLINK-6047,1 56460U 23064N   23161.25002315 -.00892697  00000-0 -96877-2 0  9999,2 56460  70.0000 159.5095 0003725 271.3119 145.8652 15.65598972  5165,6749.654,91.978,374.033,369.004,0.0
56460.0,STARLINK-6047,PAYLOAD,2023-06-10 14:00:01,15.65002578,0.0003451,69.9998,158.5787,273.6024,221.2637,-0.010971,-0.00978191,0.0,0 STARLINK-6047,1 56460U 23064N   23161.58334491 -.00978191  00000-0 -10971-1 0  9992,2 56460  69.9998 158.5787 0003451 273.6024 221.2637 15.65002578  1307,6751.368,92.013,375.563,370.903,0.0
56460.0,STARLINK-6047,PAYLOAD,2023-06-10 22:00:00,15.64312458,0.0003421,70.0001,157.6492,266.2611,305.6042,-0.010284,-0.00899426,0.0,0 STARLINK-6047,1 56460U 23064N   23161.91667824 -.00899426  00000-0 -10284-1 0  9998,2 56460  70.0001 157.6492 0003421 266.2611 305.6042 15.64312458  1302,6753.354,92.053,377.529,372.909,0.0
56460.0,STARLINK-6047,PAYLOAD,2023-06-11 14:00:01,15.63036845,0.0003512,69.9996,155.7922,272.3431,91.1556,-0.011678,-0.00964548,0.0,0 STARLINK-6047,1 56460U 23064N   23162.58334491 -.00964548  00000-0 -11678-1 0  9999,2 56460  69.9996 155.7922 0003512 272.3431  91.1556 15.63036845  5378,6757.028,92.128,381.266,376.52,0.0
56460.0,STARLINK-6047,PAYLOAD,2023-06-11 22:00:00,15.62358274,0.0003365,69.9997,154.865,267.521,170.6266,-0.011196,-0.00905968,0.0,0 STARLINK-6047,1 56460U 23064N   23162.91667824 -.00905968  00000-0 -11196-1 0  9991,2 56460  69.9997 154.8650 0003365 267.5210 170.6266 15.62358274  1306,6758.984,92.168,383.123,378.575,0.0
56460.0,STARLINK-6047,PAYLOAD,2023-06-12 06:00:00,15.61675455,0.0003247,69.9996,153.9388,274.0357,237.991,-0.011017,-0.00871202,0.0,0 STARLINK-6047,1 56460U 23064N   23163.25001157 -.00871202  00000-0 -11017-1 0  9995,2 56460  69.9996 153.9388 0003247 274.0357 237.9910 15.61675455  5485,6760.954,92.209,385.014,380.624,0.0
56460.0,STARLINK-6047,PAYLOAD,2023-06-12 14:00:01,15.61074921,0.0003199,69.9994,153.0134,273.1181,312.0383,-0.012534,-0.00959356,0.0,0 STARLINK-6047,1 56460U 23064N   23163.58335648 -.00959356  00000-0 -12534-1 0  9998,2 56460  69.9994 153.0134 0003199 273.1181 312.0383 15.61074921  1301,6762.688,92.244,386.716,382.389,0.0
56460.0,STARLINK-6047,PAYLOAD,2023-06-12 22:00:00,15.60413529,0.0003379,69.9996,152.0892,266.5074,30.879,-0.012341,-0.00924282,0.0,0 STARLINK-6047,1 56460U 23064N   23163.91667824 -.00924282  00000-0 -12341-1 0  9995,2 56460  69.9996 152.0892 0003379 266.5074  30.8790 15.60413529  5581,6764.599,92.283,388.749,384.178,0.0
56460.0,STARLINK-6047,PAYLOAD,2023-06-13 14:00:01,15.59108654,0.000327,69.9988,150.243,274.5299,165.1119,-0.013241,-0.00941583,0.0,0 STARLINK-6047,1 56460U 23064N   23164.58334491 -.00941583  00000-0 -13241-1 0  9993,2 56460  69.9988 150.2430 0003270 274.5299 165.1119 15.59108654  1309,6768.373,92.36,392.451,388.024,0.0
56460.0,STARLINK-6047,PAYLOAD,2023-06-13 22:00:00,15.58454919,0.0003184,69.9991,149.3213,267.0893,242.4992,-0.013235,-0.00920143,0.0,0 STARLINK-6047,1 56460U 23064N   23164.91667824 -.00920143  00000-0 -13235-1 0  9991,2 56460  69.9991 149.3213 0003184 267.0893 242.4992 15.58454919  1307,6770.265,92.399,394.286,389.975,0.0
56460.0,STARLINK-6047,PAYLOAD,2023-06-14 14:00:01,15.57153209,0.0003223,69.9988,147.4803,269.9773,17.1738,-0.014343,-0.00946737,0.0,0 STARLINK-6047,1 56460U 23064N   23165.58334491 -.00946737  00000-0 -14343-1 0  9994,2 56460  69.9988 147.4803 0003223 269.9773  17.1738 15.57153209  1301,6774.038,92.476,398.086,393.719,0.0
56460.0,STARLINK-6047,PAYLOAD,2023-06-14 22:00:00,15.56501269,0.0003454,69.999,146.5615,267.2798,87.4694,-0.014299,-0.00923481,0.0,0 STARLINK-6047,1 56460U 23064N   23165.91667824 -.00923481  00000-0 -14299-1 0  9991,2 56460  69.9990 146.5615 0003454 267.2798  87.4694 15.56501269  5890,6775.929,92.515,400.135,395.454,0.0
56460.0,STARLINK-6047,PAYLOAD,2023-06-15 14:00:01,15.55188175,0.000331,69.9986,144.726,273.3187,214.3041,-0.01519,-0.00933306,0.0,0 STARLINK-6047,1 56460U 23064N   23166.58334491 -.00933306  00000-0 -15190-1 0  9994,2 56460  69.9986 144.7260 0003310 273.3187 214.3041 15.55188175  1307,6779.743,92.593,403.852,399.364,0.0
56460.0,STARLINK-6047,PAYLOAD,2023-06-15 20:00:01,15.54677714,0.0003443,69.9989,144.0388,268.3901,178.2495,-0.014447,-0.00876499,0.0,0 STARLINK-6047,1 56460U 23064N   23166.83334491 -.00876499  00000-0 -14447-1 0  9995,2 56460  69.9989 144.0388 0003443 268.3901 178.2495 15.54677714  6047,6781.227,92.624,405.426,400.757,0.0
56460.0,STARLINK-6047,PAYLOAD,2023-06-16 06:00:00,15.53846119,0.000351,69.9991,142.8944,272.4706,344.8983,-0.014735,-0.00867949,0.0,0 STARLINK-6047,1 56460U 23064N   23167.25001157 -.00867949  00000-0 -14735-1 0  9992,2 56460  69.9991 142.8944 0003510 272.4706 344.8983 15.53846119  6104,6783.646,92.673,407.892,403.13,0.0
56460.0,STARLINK-6047,PAYLOAD,2023-06-16 14:00:01,15.53235466,0.0003599,69.9987,141.9796,271.2498,49.7979,-0.016419,-0.00938671,0.0,0 STARLINK-6047,1 56460U 23064N   23167.58334491 -.00938671  00000-0 -16419-1 0  9990,2 56460  69.9987 141.9796 0003599 271.2498  49.7979 15.53235466  1306,6785.424,92.71,409.731,404.847,0.0
56460.0,STARLINK-6047,PAYLOAD,2023-06-16 22:00:00,15.52589816,0.0003598,69.999,141.0662,267.9726,115.9785,-0.016631,-0.0092967,0.0,0 STARLINK-6047,1 56460U 23064N   23167.91667824 -.00929670  00000-0 -16631-1 0  9991,2 56460  69.9990 141.0662 0003598 267.9726 115.9785 15.52589816  6203,6787.305,92.748,411.612,406.728,0.0
56460.0,STARLINK-6047,PAYLOAD,2023-06-17 10:17:11,15.53184009,0.0002821,69.9986,139.6702,276.2986,83.7879,-0.0042841,-0.00261433,0.0,0 STARLINK-6047,1 56460U 23064N   23168.42860266 -.00261433  00000-0 -42841-2 0  9992,2 56460  69.9986 139.6702 0002821 276.2986  83.7879 15.53184009  5936,6785.574,92.713,409.353,405.524,0.0
56460.0,STARLINK-6047,PAYLOAD,2023-06-17 14:00:01,15.51248558,0.0003556,69.999,139.2415,270.8892,236.5489,-0.0012207,-0.00071292,0.0,0 STARLINK-6047,1 56460U 23064N   23168.58334491 -.00071292  00000-0 -12207-2 0  9990,2 56460  69.9990 139.2415 0003556 270.8892 236.5489 15.51248558  6316,6791.217,92.828,415.497,410.667,0.0
56460.0,STARLINK-6047,PAYLOAD,2023-06-17 22:00:01,15.5121993,0.0003597,69.9995,138.3302,265.5503,302.8546,0.00047009,0.00027541,0.0,0 STARLINK-6047,1 56460U 23064N   23168.91668981  .00027541  00000-0  47009-3 0  9996,2 56460  69.9995 138.3302 0003597 265.5503 302.8546 15.51219930  6369,6791.3,92.83,415.608,410.722,0.0
56460.0,STARLINK-6047,PAYLOAD,2023-06-18 07:56:30,15.52283165,0.0003154,69.9976,137.1998,260.2466,99.8365,-0.0031062,-0.00185303,0.0,0 STARLINK-6047,1 56460U 23064N   23169.33090768 -.00185303  00000-0 -31062-2 0  9999,2 56460  69.9976 137.1998 0003154 260.2466  99.8365 15.52283165  6077,6788.199,92.767,412.205,407.923,0.0
56460.0,STARLINK-6047,PAYLOAD,2023-06-18 14:00:01,15.51250089,0.0003602,69.9992,136.5077,268.1209,62.1245,-0.001309,-0.00076392,0.0,0 STARLINK-6047,1 56460U 23064N   23169.58335648 -.00076392  00000-0 -13090-2 0  9993,2 56460  69.9992 136.5077 0003602 268.1209  62.1245 15.51250089  6467,6791.212,92.828,415.523,410.631,0.0
56460.0,STARLINK-6047,PAYLOAD,2023-06-18 22:00:00,15.51227308,0.000366,69.9997,135.5966,263.2462,127.8415,0.00019496,0.00011305,0.0,0 STARLINK-6047,1 56460U 23064N   23169.91667824  .00011305  00000-0  19496-3 0  9992,2 56460  69.9997 135.5966 0003660 263.2462 127.8415 15.51227308  6511,6791.279,92.83,415.629,410.658,0.0
56460.0,STARLINK-6047,PAYLOAD,2023-06-19 14:00:01,15.51235517,0.0003467,69.9996,133.7735,267.6639,245.2628,-0.017062,-0.00910216,0.0,0 STARLINK-6047,1 56460U 23064N   23170.58334491 -.00910216  00000-0 -17062-1 0  9994,2 56460  69.9996 133.7735 0003467 267.6639 245.2628 15.51235517  6627,6791.255,92.829,415.474,410.765,0.0
